start=new Date('2023-06-27T00:00:00.000Z').valueOf();
sats=[{"REF_FRAME":"TEME","TLE_LINE2":"2 53232  97.6561 238.5981 0003640 147.4669 212.6780 15.01252995 51233","RA_OF_ASC_NODE":"238.5981","FILE":"3943596","CLASSIFICATION_TYPE":"U","BSTAR":"0.00012837000000","EPOCH":"2023-06-26T15:57:35.367552","MEAN_MOTION":"15.01252995","PERIOD":"95.920","DECAY_DATE":null,"NORAD_CAT_ID":"53232","MEAN_ANOMALY":"212.6780","OBJECT_NAME":"STARLINK-4371","ARG_OF_PERICENTER":"147.4669","ELEMENT_SET_NO":"999","LAUNCH_DATE":"2022-07-22","CENTER_NAME":"EARTH","OBJECT_TYPE":"PAYLOAD","TLE_LINE1":"1 53232U 22084AV  23177.66499268  .00001590  00000-0  12837-3 0  9990","REV_AT_EPOCH":"5123","ECCENTRICITY":"0.00036400","APOAPSIS":"565.560","TIME_SYSTEM":"UTC","SEMIMAJOR_AXIS":"6941.168","MEAN_MOTION_DOT":"0.00001590","PERIAPSIS":"560.507","SITE":"AFWTR","INCLINATION":"97.6561","OBJECT_ID":"2022-084AV","MEAN_ELEMENT_THEORY":"SGP4","MEAN_MOTION_DDOT":"0.0000000000000","GP_ID":"234572216","COUNTRY_CODE":"US","RCS_SIZE":"LARGE","EPHEMERIS_TYPE":"0"},{"REF_FRAME":"TEME","CLASSIFICATION_TYPE":"U","RA_OF_ASC_NODE":"238.6038","TLE_LINE2":"2 53233  97.6602 238.6038 0000623 212.0434 148.0752 15.01257919 51233","FILE":"3943596","EPOCH":"2023-06-26T15:49:56.055648","BSTAR":"0.00008005000000","PERIOD":"95.920","MEAN_MOTION":"15.01257919","NORAD_CAT_ID":"53233","MEAN_ANOMALY":"148.0752","DECAY_DATE":null,"ELEMENT_SET_NO":"999","ARG_OF_PERICENTER":"212.0434","OBJECT_NAME":"STARLINK-4372","TLE_LINE1":"1 53233U 22084AW  23177.65967657  .00000969  00000-0  80050-4 0  9994","REV_AT_EPOCH":"5123","OBJECT_TYPE":"PAYLOAD","CENTER_NAME":"EARTH","LAUNCH_DATE":"2022-07-22","TIME_SYSTEM":"UTC","SEMIMAJOR_AXIS":"6941.153","ECCENTRICITY":"0.00006230","APOAPSIS":"563.451","SITE":"AFWTR","PERIAPSIS":"562.586","MEAN_MOTION_DOT":"0.00000969","OBJECT_ID":"2022-084AW","INCLINATION":"97.6602","GP_ID":"234572492","MEAN_ELEMENT_THEORY":"SGP4","MEAN_MOTION_DDOT":"0.0000000000000","RCS_SIZE":"LARGE","COUNTRY_CODE":"US","EPHEMERIS_TYPE":"0"},{"LAUNCH_DATE":"2022-07-22","CENTER_NAME":"EARTH","TLE_LINE1":"1 53234U 22084AX  23177.66128481  .00000403  00000-0  35982-4 0  9997","REV_AT_EPOCH":"5124","OBJECT_TYPE":"PAYLOAD","PERIAPSIS":"562.187","MEAN_MOTION_DOT":"0.00000403","SITE":"AFWTR","ECCENTRICITY":"0.00012100","APOAPSIS":"563.867","SEMIMAJOR_AXIS":"6941.162","TIME_SYSTEM":"UTC","MEAN_MOTION_DDOT":"0.0000000000000","MEAN_ELEMENT_THEORY":"SGP4","GP_ID":"234572212","INCLINATION":"97.6583","OBJECT_ID":"2022-084AX","EPHEMERIS_TYPE":"0","RCS_SIZE":"LARGE","COUNTRY_CODE":"US","REF_FRAME":"TEME","BSTAR":"0.00003598200000","EPOCH":"2023-06-26T15:52:15.007584","TLE_LINE2":"2 53234  97.6583 238.5941 0001210 242.6899 117.4202 15.01255046 51241","RA_OF_ASC_NODE":"238.5941","FILE":"3943596","CLASSIFICATION_TYPE":"U","PERIOD":"95.920","MEAN_MOTION":"15.01255046","OBJECT_NAME":"STARLINK-4368","ELEMENT_SET_NO":"999","ARG_OF_PERICENTER":"242.6899","DECAY_DATE":null,"NORAD_CAT_ID":"53234","MEAN_ANOMALY":"117.4202"},{"EPOCH":"2023-06-26T09:29:20.880384","BSTAR":"-0.00000856250000","CLASSIFICATION_TYPE":"U","TLE_LINE2":"2 53242  53.2168 311.2516 0001721  95.6449 264.4739 15.08836347 51769","RA_OF_ASC_NODE":"311.2516","FILE":"3943320","REF_FRAME":"TEME","ARG_OF_PERICENTER":"95.6449","ELEMENT_SET_NO":"999","OBJECT_NAME":"STARLINK-4056","NORAD_CAT_ID":"53242","MEAN_ANOMALY":"264.4739","DECAY_DATE":null,"MEAN_MOTION":"15.08836347","PERIOD":"95.438","SITE":"AFETR","MEAN_MOTION_DOT":"-0.00000424","PERIAPSIS":"538.566","TIME_SYSTEM":"UTC","SEMIMAJOR_AXIS":"6917.892","ECCENTRICITY":"0.00017210","APOAPSIS":"540.947","OBJECT_TYPE":"PAYLOAD","TLE_LINE1":"1 53242U 22086A   23177.39538056 -.00000424  00000-0 -85625-5 0  9996","REV_AT_EPOCH":"5176","LAUNCH_DATE":"2022-07-24","CENTER_NAME":"EARTH","EPHEMERIS_TYPE":"0","COUNTRY_CODE":"US","RCS_SIZE":"LARGE","GP_ID":"234566173","MEAN_MOTION_DDOT":"0.0000000000000","MEAN_ELEMENT_THEORY":"SGP4","OBJECT_ID":"2022-086A","INCLINATION":"53.2168"},{"MEAN_MOTION_DDOT":"0.0000000000000","MEAN_ELEMENT_THEORY":"SGP4","GP_ID":"234565809","INCLINATION":"53.2169","OBJECT_ID":"2022-086B","EPHEMERIS_TYPE":"0","COUNTRY_CODE":"US","RCS_SIZE":"LARGE","LAUNCH_DATE":"2022-07-24","CENTER_NAME":"EARTH","OBJECT_TYPE":"PAYLOAD","REV_AT_EPOCH":"5169","TLE_LINE1":"1 53243U 22086B   23177.39676303  .00002640  00000-0  18392-3 0  9990","MEAN_MOTION_DOT":"0.00002640","PERIAPSIS":"538.975","SITE":"AFETR","APOAPSIS":"540.516","ECCENTRICITY":"0.00011140","SEMIMAJOR_AXIS":"6917.880","TIME_SYSTEM":"UTC","MEAN_MOTION":"15.08840050","PERIOD":"95.438","OBJECT_NAME":"STARLINK-4047","ARG_OF_PERICENTER":"87.9406","ELEMENT_SET_NO":"999","DECAY_DATE":null,"MEAN_ANOMALY":"272.1714","NORAD_CAT_ID":"53243","REF_FRAME":"TEME","BSTAR":"0.00018392000000","EPOCH":"2023-06-26T09:31:20.325792","TLE_LINE2":"2 53243  53.2169 316.2528 0001114  87.9406 272.1714 15.08840050 51699","RA_OF_ASC_NODE":"316.2528","FILE":"3943321","CLASSIFICATION_TYPE":"U"},{"EPHEMERIS_TYPE":"0","COUNTRY_CODE":"US","RCS_SIZE":"LARGE","MEAN_MOTION_DDOT":"0.0000000000000","MEAN_ELEMENT_THEORY":"SGP4","GP_ID":"234566189","INCLINATION":"53.2155","OBJECT_ID":"2022-086C","MEAN_MOTION_DOT":"0.00002056","PERIAPSIS":"538.995","SITE":"AFETR","ECCENTRICITY":"0.00010840","APOAPSIS":"540.495","SEMIMAJOR_AXIS":"6917.880","TIME_SYSTEM":"UTC","LAUNCH_DATE":"2022-07-24","CENTER_NAME":"EARTH","OBJECT_TYPE":"PAYLOAD","REV_AT_EPOCH":"5166","TLE_LINE1":"1 53244U 22086C   23177.18700096  .00002056  00000-0  14724-3 0  9991","OBJECT_NAME":"STARLINK-4125","ARG_OF_PERICENTER":"79.2873","ELEMENT_SET_NO":"999","DECAY_DATE":null,"MEAN_ANOMALY":"280.8241","NORAD_CAT_ID":"53244","MEAN_MOTION":"15.08840011","PERIOD":"95.438","BSTAR":"0.00014724000000","EPOCH":"2023-06-26T04:29:16.882944","RA_OF_ASC_NODE":"317.1963","TLE_LINE2":"2 53244  53.2155 317.1963 0001084  79.2873 280.8241 15.08840011 51661","FILE":"3943321","CLASSIFICATION_TYPE":"U","REF_FRAME":"TEME"},{"EPOCH":"2023-06-26T15:47:33.655488","BSTAR":"0.00045156000000","CLASSIFICATION_TYPE":"U","TLE_LINE2":"2 53245  53.2164 315.0780 0001148  89.8401 270.2723 15.08859852 51730","RA_OF_ASC_NODE":"315.0780","FILE":"3943616","REF_FRAME":"TEME","ARG_OF_PERICENTER":"89.8401","ELEMENT_SET_NO":"999","OBJECT_NAME":"STARLINK-4124","MEAN_ANOMALY":"270.2723","NORAD_CAT_ID":"53245","DECAY_DATE":null,"PERIOD":"95.436","MEAN_MOTION":"15.08859852","SITE":"AFETR","PERIAPSIS":"538.891","MEAN_MOTION_DOT":"0.00006910","TIME_SYSTEM":"UTC","SEMIMAJOR_AXIS":"6917.820","ECCENTRICITY":"0.00011480","APOAPSIS":"540.479","REV_AT_EPOCH":"5173","TLE_LINE1":"1 53245U 22086D   23177.65802842  .00006910  00000-0  45156-3 0  9992","OBJECT_TYPE":"PAYLOAD","CENTER_NAME":"EARTH","LAUNCH_DATE":"2022-07-24","EPHEMERIS_TYPE":"0","RCS_SIZE":"LARGE","COUNTRY_CODE":"US","GP_ID":"234573260","MEAN_MOTION_DDOT":"0.0000000000000","MEAN_ELEMENT_THEORY":"SGP4","OBJECT_ID":"2022-086D","INCLINATION":"53.2164"},{"MEAN_ELEMENT_THEORY":"SGP4","MEAN_MOTION_DDOT":"0.0000000000000","GP_ID":"234566191","INCLINATION":"53.2157","OBJECT_ID":"2022-086E","EPHEMERIS_TYPE":"0","RCS_SIZE":"LARGE","COUNTRY_CODE":"US","CENTER_NAME":"EARTH","LAUNCH_DATE":"2022-07-24","REV_AT_EPOCH":"5169","TLE_LINE1":"1 53246U 22086E   23177.38939286  .00001793  00000-0  13069-3 0  9998","OBJECT_TYPE":"PAYLOAD","PERIAPSIS":"538.838","MEAN_MOTION_DOT":"0.00001793","SITE":"AFETR","ECCENTRICITY":"0.00012940","APOAPSIS":"540.628","TIME_SYSTEM":"UTC","SEMIMAJOR_AXIS":"6917.868","PERIOD":"95.437","MEAN_MOTION":"15.08844124","OBJECT_NAME":"STARLINK-4131","ELEMENT_SET_NO":"999","ARG_OF_PERICENTER":"94.0854","DECAY_DATE":null,"NORAD_CAT_ID":"53246","MEAN_ANOMALY":"266.0286","REF_FRAME":"TEME","BSTAR":"0.00013069000000","EPOCH":"2023-06-26T09:20:43.543104","TLE_LINE2":"2 53246  53.2157 316.2841 0001294  94.0854 266.0286 15.08844124 51694","FILE":"3943321","RA_OF_ASC_NODE":"316.2841","CLASSIFICATION_TYPE":"U"},{"APOAPSIS":"540.918","ECCENTRICITY":"0.00016700","TIME_SYSTEM":"UTC","SEMIMAJOR_AXIS":"6917.898","MEAN_MOTION_DOT":"-0.00000724","PERIAPSIS":"538.607","SITE":"AFETR","LAUNCH_DATE":"2022-07-24","CENTER_NAME":"EARTH","OBJECT_TYPE":"PAYLOAD","TLE_LINE1":"1 53247U 22086F   23177.41012485 -.00000724  00000-0 -27379-4 0  9991","REV_AT_EPOCH":"5176","COUNTRY_CODE":"US","RCS_SIZE":"LARGE","EPHEMERIS_TYPE":"0","INCLINATION":"53.2180","OBJECT_ID":"2022-086F","MEAN_ELEMENT_THEORY":"SGP4","MEAN_MOTION_DDOT":"0.0000000000000","GP_ID":"234565807","TLE_LINE2":"2 53247  53.2180 311.3719 0001670  97.0046 263.1136 15.08834335 51768","FILE":"3943321","RA_OF_ASC_NODE":"311.3719","CLASSIFICATION_TYPE":"U","BSTAR":"-0.00002737900000","EPOCH":"2023-06-26T09:50:34.787040","REF_FRAME":"TEME","DECAY_DATE":null,"MEAN_ANOMALY":"263.1136","NORAD_CAT_ID":"53247","OBJECT_NAME":"STARLINK-4061","ELEMENT_SET_NO":"999","ARG_OF_PERICENTER":"97.0046","MEAN_MOTION":"15.08834335","PERIOD":"95.438"},{"LAUNCH_DATE":"2022-07-24","CENTER_NAME":"EARTH","OBJECT_TYPE":"PAYLOAD","TLE_LINE1":"1 53248U 22086G   23177.66403530  .00002452  00000-0  17207-3 0  9990","REV_AT_EPOCH":"5180","APOAPSIS":"540.293","ECCENTRICITY":"0.00007830","TIME_SYSTEM":"UTC","SEMIMAJOR_AXIS":"6917.886","MEAN_MOTION_DOT":"0.00002452","PERIAPSIS":"539.209","SITE":"AFETR","INCLINATION":"53.2161","OBJECT_ID":"2022-086G","MEAN_ELEMENT_THEORY":"SGP4","MEAN_MOTION_DDOT":"0.0000000000000","GP_ID":"234572770","COUNTRY_CODE":"US","RCS_SIZE":"LARGE","EPHEMERIS_TYPE":"0","REF_FRAME":"TEME","TLE_LINE2":"2 53248  53.2161 310.1593 0000783  82.1939 277.9142 15.08838209 51804","RA_OF_ASC_NODE":"310.1593","FILE":"3943617","CLASSIFICATION_TYPE":"U","BSTAR":"0.00017207000000","EPOCH":"2023-06-26T15:56:12.649920","MEAN_MOTION":"15.08838209","PERIOD":"95.438","DECAY_DATE":null,"MEAN_ANOMALY":"277.9142","NORAD_CAT_ID":"53248","OBJECT_NAME":"STARLINK-4135","ELEMENT_SET_NO":"999","ARG_OF_PERICENTER":"82.1939"}];
